NORAD_CAT_ID,OBJECT_NAME,OBJECT_TYPE,EPOCH,MEAN_MOTION,ECCENTRICITY,INCLINATION,RA_OF_ASC_NODE,ARG_OF_PERICENTER,MEAN_ANOMALY,BSTAR,MEAN_MOTION_DOT,MEAN_MOTION_DDOT,TLE_LINE0,TLE_LINE1,TLE_LINE2,SEMIMAJOR_AXIS,PERIOD,APOGEE,PERIGEE,DECAYED
52121.0,STARLINK-3678,PAYLOAD,2023-04-15 09:21:05,15.0885554,0.0001266,53.2141,144.5017,97.3905,262.7231,-0.00011291,-2.085e-05,0.0,0 STARLINK-3678,1 52121U 22029AK  23105.38965152 -.00002085  00000-0 -11291-3 0  9990,2 52121  53.2141 144.5017 0001266  97.3905 262.7231 15.08855540 61000,6917.833,95.437,540.574,538.822,0.0
52121.0,STARLINK-3678,PAYLOAD,2023-04-16 07:36:30,15.08839504,0.0001447,53.2154,140.3387,110.8084,249.3063,4.3112e-05,3.98e-06,0.0,0 STARLINK-3678,1 52121U 22029AK  23106.31702107  .00000398  00000-0  43112-4 0  9994,2 52121  53.2154 140.3387 0001447 110.8084 249.3063 15.08839504 61149,6917.882,95.438,540.748,538.746,0.0
52121.0,STARLINK-3678,PAYLOAD,2023-04-16 18:44:12,15.08837933,0.0001394,53.2153,138.2574,109.6893,250.425,3.2179e-05,2.24e-06,0.0,0 STARLINK-3678,1 52121U 22029AK  23106.78070271  .00000224  00000-0  32179-4 0  9994,2 52121  53.2153 138.2574 0001394 109.6893 250.4250 15.08837933 61210,6917.887,95.438,540.716,538.787,0.0
52121.0,STARLINK-3678,PAYLOAD,2023-04-17 12:13:27,15.08840277,0.0001663,53.2154,134.9861,113.8409,246.2757,-2.551e-05,-6.94e-06,0.0,0 STARLINK-3678,1 52121U 22029AK  23107.50934380 -.00000694  00000-0 -25510-4 0  9999,2 52121  53.2154 134.9861 0001663 113.8409 246.2757 15.08840277 61324,6917.88,95.438,540.895,538.594,0.0
52121.0,STARLINK-3678,PAYLOAD,2023-04-18 08:53:28,15.08838838,0.000133,53.2157,131.1199,112.0348,248.0786,7.4997e-05,9.06e-06,0.0,0 STARLINK-3678,1 52121U 22029AK  23108.37046451  .00000906  00000-0  74997-4 0  9995,2 52121  53.2157 131.1199 0001330 112.0348 248.0786 15.08838838 61450,6917.884,95.438,540.669,538.829,0.0
52121.0,STARLINK-3678,PAYLOAD,2023-04-18 18:25:46,15.08839457,0.0001238,53.2158,129.3358,106.611,253.5018,9.2735e-05,1.188e-05,0.0,0 STARLINK-3678,1 52121U 22029AK  23108.76790414  .00001188  00000-0  92735-4 0  9996,2 52121  53.2158 129.3358 0001238 106.6110 253.5018 15.08839457 61514,6917.882,95.438,540.603,538.891,0.0
52121.0,STARLINK-3678,PAYLOAD,2023-04-19 10:19:38,15.08840176,0.0001207,53.2157,126.3615,100.9807,259.1321,8.8387e-05,1.119e-05,0.0,0 STARLINK-3678,1 52121U 22029AK  23109.43030635  .00001119  00000-0  88387-4 0  9995,2 52121  53.2157 126.3615 0001207 100.9807 259.1321 15.08840176 61612,6917.88,95.438,540.58,538.91,0.0
52121.0,STARLINK-3678,PAYLOAD,2023-04-19 18:16:34,15.08839491,0.0001286,53.2161,124.8747,93.3483,266.7656,7.5192e-05,9.09e-06,0.0,0 STARLINK-3678,1 52121U 22029AK  23109.76150756  .00000909  00000-0  75192-4 0  9994,2 52121  53.2161 124.8747 0001286  93.3483 266.7656 15.08839491 61666,6917.882,95.438,540.637,538.857,0.0
52121.0,STARLINK-3678,PAYLOAD,2023-04-20 03:48:53,15.08841478,0.0001227,53.2158,123.0902,95.0019,265.1113,4.1561e-05,3.74e-06,0.0,0 STARLINK-3678,1 52121U 22029AK  23110.15894700  .00000374  00000-0  41561-4 0  9992,2 52121  53.2158 123.0902 0001227  95.0019 265.1113 15.08841478 61721,6917.876,95.437,540.59,538.892,0.0
52121.0,STARLINK-3678,PAYLOAD,2023-04-20 10:10:25,15.08844484,0.0001261,53.2157,121.9005,95.0686,265.045,6.4058e-05,7.32e-06,0.0,0 STARLINK-3678,1 52121U 22029AK  23110.42390404  .00000732  00000-0  64058-4 0  9998,2 52121  53.2157 121.9005 0001261  95.0686 265.0450 15.08844484 61766,6917.867,95.437,540.604,538.859,0.0
52121.0,STARLINK-3678,PAYLOAD,2023-04-20 18:07:21,15.08836397,0.0001424,53.2161,120.4147,84.0084,276.1071,-3.0322e-06,-3.36e-06,0.0,0 STARLINK-3678,1 52121U 22029AK  23110.75511131 -.00000336  00000-0 -30322-5 0  9996,2 52121  53.2161 120.4147 0001424  84.0084 276.1071 15.08836397 61815,6917.891,95.438,540.742,538.771,0.0
52121.0,STARLINK-3678,PAYLOAD,2023-04-21 11:36:36,15.08835016,0.0001259,53.2157,117.1429,90.7786,269.3351,-5.8592e-06,-3.81e-06,0.0,0 STARLINK-3678,1 52121U 22029AK  23111.48375421 -.00000381  00000-0 -58592-5 0  9996,2 52121  53.2157 117.1429 0001259  90.7786 269.3351 15.08835016 61929,6917.896,95.438,540.632,538.89,0.0
52121.0,STARLINK-3678,PAYLOAD,2023-04-21 17:58:08,15.08838938,0.0001223,53.2158,115.9538,90.3405,269.7727,3.8871e-05,3.31e-06,0.0,0 STARLINK-3678,1 52121U 22029AK  23111.74871078  .00000331  00000-0  38871-4 0  9994,2 52121  53.2158 115.9538 0001223  90.3405 269.7727 15.08838938 61963,6917.884,95.438,540.595,538.903,0.0
52121.0,STARLINK-3678,PAYLOAD,2023-04-22 00:19:40,15.08841346,0.0001173,53.2159,114.7639,90.0868,270.0259,7.9559e-05,9.79e-06,0.0,0 STARLINK-3678,1 52121U 22029AK  23112.01366801  .00000979  00000-0  79559-4 0  9994,2 52121  53.2159 114.7639 0001173  90.0868 270.0259 15.08841346 62005,6917.876,95.437,540.553,538.93,0.0
52121.0,STARLINK-3678,PAYLOAD,2023-04-22 11:27:22,15.08849102,0.0001188,53.2159,112.6824,92.1787,267.9342,0.00010627,1.404e-05,0.0,0 STARLINK-3678,1 52121U 22029AK  23112.47734137  .00001404  00000-0  10627-3 0  9999,2 52121  53.2159 112.6824 0001188  92.1787 267.9342 15.08849102 62070,6917.853,95.437,540.539,538.896,0.0
52121.0,STARLINK-3678,PAYLOAD,2023-04-23 11:18:14,15.0880171,0.0001179,53.2157,108.2227,92.7173,267.3954,-0.00018697,-3.259e-05,0.0,0 STARLINK-3678,1 52121U 22029AK  23113.47099823 -.00003259  00000-0 -18697-3 0  9993,2 52121  53.2157 108.2227 0001179  92.7173 267.3954 15.08801710 62224,6917.997,95.44,540.678,539.047,0.0
52121.0,STARLINK-3678,PAYLOAD,2023-04-24 06:22:48,15.08854018,0.0001395,53.2165,104.6538,71.5362,288.5782,0.00017096,2.435e-05,0.0,0 STARLINK-3678,1 52121U 22029AK  23114.26583808  .00002435  00000-0  17096-3 0  9997,2 52121  53.2165 104.6538 0001395  71.5362 288.5782 15.08854018 62349,6917.838,95.437,540.668,538.738,0.0
52121.0,STARLINK-3678,PAYLOAD,2023-04-25 09:24:20,15.0885265,0.0001482,53.2165,99.599,75.5827,284.533,0.00061094,9.452e-05,0.0,0 STARLINK-3678,1 52121U 22029AK  23115.39190629  .00009452  00000-0  61094-3 0  9990,2 52121  53.2165  99.5990 0001482  75.5827 284.5330 15.08852650 62514,6917.842,95.437,540.732,538.681,0.0
52121.0,STARLINK-3678,PAYLOAD,2023-04-26 10:50:32,15.08835572,0.0001292,53.2156,94.841,90.1053,270.0087,-0.00038615,-6.427e-05,0.0,0 STARLINK-3678,1 52121U 22029AK  23116.45176147 -.00006427  00000-0 -38615-3 0  9991,2 52121  53.2156  94.8410 0001292  90.1053 270.0087 15.08835572 62672,6917.894,95.438,540.653,538.865,0.0
52121.0,STARLINK-3678,PAYLOAD,2023-04-26 15:36:41,15.08836496,0.0001332,53.2157,93.9501,82.8789,277.2355,-0.00031608,-5.314e-05,0.0,0 STARLINK-3678,1 52121U 22029AK  23116.65048191 -.00005314  00000-0 -31608-3 0  9999,2 52121  53.2157  93.9501 0001332  82.8789 277.2355 15.08836496 62700,6917.891,95.438,540.678,538.835,0.0
52121.0,STARLINK-3678,PAYLOAD,2023-04-27 04:19:47,15.08830096,0.00014,53.2163,91.571,85.1293,274.9859,-0.00029369,-4.958e-05,0.0,0 STARLINK-3678,1 52121U 22029AK  23117.18040830 -.00004958  00000-0 -29369-3 0  9994,2 52121  53.2163  91.5710 0001400  85.1293 274.9859 15.08830096 62786,6917.911,95.438,540.744,538.807,0.0
52121.0,STARLINK-3678,PAYLOAD,2023-04-27 10:41:19,15.08844106,0.0001429,53.2176,90.38,91.4929,268.6226,-0.00012717,-2.312e-05,0.0,0 STARLINK-3678,1 52121U 22029AK  23117.44536714 -.00002312  00000-0 -12717-3 0  9995,2 52121  53.2176  90.3800 0001429  91.4929 268.6226 15.08844106 62824,6917.868,95.437,540.721,538.744,0.0
52121.0,STARLINK-3678,PAYLOAD,2023-04-28 07:21:20,15.08850708,0.0001323,53.2165,86.5146,87.8253,272.2891,0.00051377,7.901e-05,0.0,0 STARLINK-3678,1 52121U 22029AK  23118.30648567  .00007901  00000-0  51377-3 0  9993,2 52121  53.2165  86.5146 0001323  87.8253 272.2891 15.08850708 62952,6917.848,95.437,540.628,538.797,0.0
52121.0,STARLINK-3678,PAYLOAD,2023-04-28 15:18:15,15.08855492,0.0001348,53.2161,85.0277,87.6002,272.5144,0.00054913,8.466e-05,0.0,0 STARLINK-3678,1 52121U 22029AK  23118.63768471  .00008466  00000-0  54913-3 0  9992,2 52121  53.2161  85.0277 0001348  87.6002 272.5144 15.08855492 63000,6917.833,95.437,540.631,538.766,0.0
52121.0,STARLINK-3678,PAYLOAD,2023-04-29 07:12:06,15.0885511,0.0001605,53.2165,82.052,101.8211,258.2961,0.00014284,1.987e-05,0.0,0 STARLINK-3678,1 52121U 22029AK  23119.30007892  .00001987  00000-0  14284-3 0  9998,2 52121  53.2165  82.0520 0001605 101.8211 258.2961 15.08855110 63105,6917.834,95.437,540.81,538.589,0.0
52121.0,STARLINK-3678,PAYLOAD,2023-04-30 07:02:53,15.08856182,0.0001559,53.2161,77.5935,87.8021,272.3149,0.00015621,2.2e-05,0.0,0 STARLINK-3678,1 52121U 22029AK  23120.29367323  .00002200  00000-0  15621-3 0  9991,2 52121  53.2161  77.5935 0001559  87.8021 272.3149 15.08856182 63251,6917.831,95.437,540.774,538.617,0.0
52121.0,STARLINK-3678,PAYLOAD,2023-05-01 03:42:54,15.08840084,0.0001459,53.2161,73.726,106.5382,253.5771,1.0019e-05,-1.29e-06,0.0,0 STARLINK-3678,1 52121U 22029AK  23121.15479884 -.00000129  00000-0  10019-4 0  9999,2 52121  53.2161  73.7260 0001459 106.5382 253.5771 15.08840084 63388,6917.88,95.438,540.754,538.736,0.0
52121.0,STARLINK-3678,PAYLOAD,2023-05-01 06:53:40,15.08838489,0.0001454,53.2162,73.1317,105.4587,254.6566,-1.9698e-05,-6.01e-06,0.0,0 STARLINK-3678,1 52121U 22029AK  23121.28727958 -.00000601  00000-0 -19698-4 0  9999,2 52121  53.2162  73.1317 0001454 105.4587 254.6566 15.08838489 63409,6917.885,95.438,540.756,538.744,0.0
52121.0,STARLINK-3678,PAYLOAD,2023-05-02 05:09:04,15.08850978,0.0001565,53.2172,68.9697,112.7955,247.3203,4.8006e-05,4.76e-06,0.0,0 STARLINK-3678,1 52121U 22029AK  23122.21463350  .00000476  00000-0  48006-4 0  9999,2 52121  53.2172  68.9697 0001565 112.7955 247.3203 15.08850978 63545,6917.847,95.437,540.794,538.629,0.0
52121.0,STARLINK-3678,PAYLOAD,2023-05-02 13:05:59,15.0885343,0.0001295,53.2164,67.4837,101.1735,258.9402,-0.00012868,-2.336e-05,0.0,0 STARLINK-3678,1 52121U 22029AK  23122.54583094 -.00002336  00000-0 -12868-3 0  9998,2 52121  53.2164  67.4837 0001295 101.1735 258.9402 15.08853430 63594,6917.839,95.437,540.6,538.808,0.0
